STARLINK-3059           
1 49181U 21082BD  25204.21404174  .00000415  00000+0  42555-4 0  9996
2 49181  70.0004 153.0458 0003266 264.7049  95.3737 14.98333960212770
ONEWEB-0292             
1 49186U 21083A   25204.53540978 -.00000250  00000+0 -71911-3 0  9996
2 49186  87.8960  25.5603 0001718  95.5109 264.6216 13.13469311189079
ONEWEB-0303             
1 49187U 21083B   25203.54473242  .00000029  00000+0  41687-4 0  9996
2 49187  87.9121  40.9417 0001650  91.8964 268.2357 13.18688042186530
ONEWEB-0306             
1 49188U 21083C   25204.06596872  .00000100  00000+0  22116-3 0  9995
2 49188  87.9123  40.8230 0001911  82.4076 277.7273 13.18687344187925
ONEWEB-0307             
1 49189U 21083D   25204.07241685 -.00000426  00000+0 -12028-2 0  9999
2 49189  87.8953  25.6566 0001782  79.4412 280.6918 13.13466594189013
ONEWEB-0320             
1 49190U 21083E   25203.54144102  .00000023  00000+0  26500-4 0  9991
2 49190  87.9120  40.9564 0001770  87.5072 272.6263 13.18685328186530
ONEWEB-0321             
1 49191U 21083F   25203.43161553  .00000031  00000+0  43507-4 0  9994
2 49191  87.9278 340.1292 0002069  88.7658 271.3713 13.20771578193308
ONEWEB-0322             
1 49192U 21083G   25204.06817971 -.00000250  00000+0 -71862-3 0  9996
2 49192  87.8963  25.6472 0002060  81.7103 278.4259 13.13468953189000
ONEWEB-0324             
1 49193U 21083H   25203.98350922  .00000076  00000+0  16058-3 0  9995
2 49193  87.9122  40.8476 0001695  83.6299 276.5026 13.18685284187891
ONEWEB-0325             
1 49194U 21083J   25204.06268503  .00000091  00000+0  19913-3 0  9999
2 49194  87.9124  40.8487 0001880  86.8039 273.3308 13.18687265187911
ONEWEB-0326             
1 49195U 21083K   25203.54651929  .00000038  00000+0  64739-4 0  9998
2 49195  87.9118  40.9413 0001647  99.6694 260.4624 13.18687292186552
ONEWEB-0327             
1 49196U 21083L   25203.62212869  .00000035  00000+0  56580-4 0  9996
2 49196  87.9116  40.9549 0001733  97.8418 262.2911 13.18686048186581
ONEWEB-0328             
1 49197U 21083M   25204.21038459 -.00000090  00000+0 -28246-3 0  9994
2 49197  87.8952  25.5597 0001663  87.4426 272.6893 13.13468629189009
ONEWEB-0331             
1 49198U 21083N   25203.53978910  .00000009  00000+0 -10554-4 0  9997
2 49198  87.9119  40.9349 0001449  93.9972 266.1325 13.18685955186566
ONEWEB-0333             
1 49199U 21083P   25203.51970792 -.00000044  00000+0 -15675-3 0  9994
2 49199  87.8961  25.7669 0001850  90.2379 269.8962 13.13468142187632
ONEWEB-0334             
1 49200U 21083Q   25204.35806364 -.00000007  00000+0 -49603-4 0  9991
2 49200  87.9278 339.9782 0002832  86.9214 273.2244 13.20771764194673
ONEWEB-0335             
1 49201U 21083R   25204.50494235  .00000257  00000+0  66859-3 0  9995
2 49201  87.8957  25.5587 0001676  95.3696 264.7624 13.13468193189066
ONEWEB-0336             
1 49202U 21083S   25204.01909779  .00000239  00000+0  61933-3 0  9994
2 49202  87.8956  25.6487 0001838  93.2447 266.8892 13.13470247189004
ONEWEB-0337             
1 49203U 21083T   25204.02911258  .00000372  00000+0  98268-3 0  9990
2 49203  87.8962  25.6461 0001583  88.2698 271.8613 13.13471481189001
ONEWEB-0338             
1 49204U 21083U   25204.40857485  .00000071  00000+0  14265-3 0  9995
2 49204  87.9287 339.9615 0002128  91.2863 268.8514 13.20770316194716
ONEWEB-0339             
1 49205U 21083V   25204.57096031  .00000320  00000+0  84246-3 0  9999
2 49205  87.8960  25.5249 0001792  85.4334 274.7000 13.13468741189054
ONEWEB-0340             
1 49206U 21083W   25203.98185879  .00000058  00000+0  11324-3 0  9998
2 49206  87.9120  40.8504 0001759  89.4224 270.7110 13.18684674187879
ONEWEB-0341             
1 49207U 21083X   25204.51959782  .00000037  00000+0  60562-4 0  9997
2 49207  87.9123  40.7539 0001484  71.5150 288.6144 13.18685639187962
ONEWEB-0342             
1 49208U 21083Y   25204.41489257  .00000028  00000+0  37147-4 0  9995
2 49208  87.9274 339.9354 0001975  95.0171 265.1188 13.20769806194684
ONEWEB-0343             
1 49209U 21083Z   25203.98434569  .00000093  00000+0  20268-3 0  9990
2 49209  87.9122  40.8474 0001799  68.4674 291.6649 13.18687320187948
ONEWEB-0344             
1 49210U 21083AA  25204.03264171  .00000425  00000+0  11295-2 0  9997
2 49210  87.8962  25.6719 0001418  79.8734 280.2555 13.13468982188986
ONEWEB-0345             
1 49211U 21083AB  25204.55741566  .00000194  00000+0  49695-3 0  9992
2 49211  87.8957  25.5194 0001384  79.3745 280.7540 13.13468926189063
ONEWEB-0346             
1 49212U 21083AC  25203.84164901  .00000025  00000+0  29708-4 0  9993
2 49212  87.9123  40.8980 0001630 108.2144 251.9166 13.18685735187866
ONEWEB-0348             
1 49213U 21083AD  25204.40542345  .00000055  00000+0  10270-3 0  9995
2 49213  87.9281 339.9473 0001300 107.4700 252.6576 13.20772472194717
ONEWEB-0350             
1 49214U 21083AE  25204.03348853  .00000434  00000+0  11527-2 0  9999
2 49214  87.8958  25.6149 0001494  83.8935 276.2364 13.13471697189020
ONEWEB-0351             
1 49215U 21083AF  25204.39898965 -.00002035  00000+0 -50379-2 0  9992
2 49215  87.9283 339.9301 0002037  74.7950 285.3409 13.20779480194682
ONEWEB-0352             
1 49216U 21083AG  25204.54725992 -.00000020  00000+0 -89986-4 0  9999
2 49216  87.8958  25.5543 0002078  79.1802 280.9561 13.13469274189185
ONEWEB-0354             
1 49217U 21083AH  25204.42435121  .00000120  00000+0  26219-3 0  9997
2 49217  87.9287 339.9248 0001557  95.7165 264.4146 13.20771014194721
ONEWEB-0355             
1 49218U 21083AJ  25204.04293935  .00000266  00000+0  69253-3 0  9997
2 49218  87.8962  25.6532 0001735  82.2038 277.9288 13.13470088188991
ONEWEB-0357             
1 49219U 21083AK  25204.42119924 -.00000021  00000+0 -83393-4 0  9998
2 49219  87.9279 339.9302 0001861  91.3102 268.8244 13.20770134194714
JILIN-1 GAOFEN 2D       
1 49256U 21086A   25204.53006260  .00005228  00000+0  35242-3 0  9993
2 49256  97.6162 324.2616 0036282 184.9345 175.1530 15.06556084211161
SHIYAN-10 01 (SY-10 01) 
1 49258U 21087A   25198.42832769  .00000704  00000+0  00000+0 0  9991
2 49258  63.0959 259.7078 6946117 269.6445  17.6219  2.00637561 27814
LANDSAT 9               
1 49260U 21088A   25204.47583757  .00000359  00000+0  89853-4 0  9992
2 49260  98.2261 274.5054 0001412  85.7197 274.4163 14.57105111203124
CS1                     
1 49261U 21088B   25203.72366361  .00009204  00000+0  37957-3 0  9995
2 49261  97.4267 263.5790 0016063 163.2841 196.8929 15.24167197210068
CS2                     
1 49262U 21088C   25203.61362308  .00009293  00000+0  37364-3 0  9991
2 49262  97.4320 265.0636 0013088 166.8559 193.3022 15.25061385210108
CUTE                    
1 49263U 21088D   25204.19300245  .00053828  00000+0  99338-3 0  9990
2 49263  97.4496 281.7578 0008494  85.8877 274.3344 15.48898690211178
CUPID                   
1 49264U 21088E   25203.69916234  .00006185  00000+0  29117-3 0  9998
2 49264  97.4370 264.2166 0015248 137.7475 222.4938 15.19794432210039
ONEWEB-0332             
1 49279U 21090A   25204.46592304  .00000017  00000+0  12295-4 0  9999
2 49279  87.9056 355.1269 0002069  92.8737 267.2630 13.14503414184399
ONEWEB-0347             
1 49280U 21090B   25204.41172525  .00000101  00000+0  21557-3 0  9999
2 49280  87.9287 339.9417 0002229 100.7615 259.3770 13.20770592187642
ONEWEB-0349             
1 49281U 21090C   25204.36753648  .00000021  00000+0  19005-4 0  9992
2 49281  87.9279 339.9557 0001855  94.4182 265.7163 13.20770552187712
ONEWEB-0353             
1 49282U 21090D   25204.45799055 -.00000079  00000+0 -24684-3 0  9998
2 49282  87.9057 355.1153 0002088  95.3739 264.7629 13.14503573185686
ONEWEB-0356             
1 49283U 21090E   25204.36595676  .00000015  00000+0  37919-5 0  9997
2 49283  87.9280 339.9465 0002099 123.2685 236.8649 13.20771517187714
ONEWEB-0358             
1 49284U 21090F   25203.94140909  .00000059  00000+0  11297-3 0  9993
2 49284  87.9280 340.0208 0001728 100.3658 259.7670 13.20770947188385
ONEWEB-0359             
1 49285U 21090G   25204.39277666  .00000126  00000+0  27908-3 0  9996
2 49285  87.9276 339.9433 0001453  97.9926 262.1372 13.20770302188418
ONEWEB-0360             
1 49286U 21090H   25204.38328565  .00001799  00000+0  43910-2 0  9998
2 49286  87.9282 339.9524 0001799  96.8055 263.3283 13.20790464187730
ONEWEB-0361             
1 49287U 21090J   25204.36438090  .00000023  00000+0  24243-4 0  9991
2 49287  87.9282 339.9509 0001887 102.8183 257.3161 13.20770988187728
ONEWEB-0362             
1 49288U 21090K   25204.20816961  .00000005  00000+0 -18693-4 0  9995
2 49288  87.9225  10.3861 0001840  85.9376 274.1967 13.19724752184343
ONEWEB-0363             
1 49289U 21090L   25204.38016695  .00000062  00000+0  11983-3 0  9997
2 49289  87.9284 339.9433 0001833 110.3623 249.7707 13.20771050187735
ONEWEB-0364             
1 49290U 21090M   25203.43321191  .00000039  00000+0  65231-4 0  9994
2 49290  87.9280 340.1610 0001912 101.7161 258.4186 13.20771552187918
ONEWEB-0365             
1 49291U 21090N   25203.99019614 -.00000056  00000+0 -17120-3 0  9994
2 49291  87.9220  10.3840 0001933  90.4598 269.6756 13.19724811184294
ONEWEB-0366             
1 49292U 21090P   25204.37870558 -.00000133  00000+0 -39281-3 0  9998
2 49292  87.9058 355.1440 0001786  96.9086 263.2247 13.14503480185668
ONEWEB-0367             
1 49293U 21090Q   25204.37858458  .00000056  00000+0  10624-3 0  9996
2 49293  87.9284 339.9388 0001899  91.4705 268.6646 13.20770685187725
ONEWEB-0368             
1 49294U 21090R   25204.42749606  .00000016  00000+0  81896-5 0  9994
2 49294  87.9291 339.9636 0002620 107.5256 252.6164 13.20770342188889
ONEWEB-0369             
1 49295U 21090S   25204.51616275 -.00000035  00000+0 -12090-3 0  9991
2 49295  87.9227  10.3101 0001921  91.4822 268.6531 13.19723796184351
